[{"OBJECT_NAME":"STARLINK-5459","OBJECT_ID":"2023-021AT","EPOCH":"2026-03-09T16:26:52.969920","MEAN_MOTION":14.98337361,"ECCENTRICITY":0.00034326,"INCLINATION":70.0008,"RA_OF_ASC_NODE":164.4772,"ARG_OF_PERICENTER":272.8333,"MEAN_ANOMALY":87.2433,"EPHEMERIS_TYPE":0,"CLASSIFICATION_TYPE":"U","NORAD_CAT_ID":55669,"ELEMENT_SET_NO":999,"REV_AT_EPOCH":16927,"BSTAR":-4.705109e-5,"MEAN_MOTION_DOT":-6.55e-6,"MEAN_MOTION_DDOT":0},{"OBJECT_NAME":"SKYKRAFT-4E","OBJECT_ID":"2025-154L","EPOCH":"2026-03-09T17:52:42.156768","MEAN_MOTION":14.96573469,"ECCENTRICITY":0.00042366,"INCLINATION":97.6795,"RA_OF_ASC_NODE":135.3397,"ARG_OF_PERICENTER":218.3459,"MEAN_ANOMALY":141.7462,"EPHEMERIS_TYPE":0,"CLASSIFICATION_TYPE":"U","NORAD_CAT_ID":65227,"ELEMENT_SET_NO":999,"REV_AT_EPOCH":3245,"BSTAR":0.00070463663,"MEAN_MOTION_DOT":7.969e-5,"MEAN_MOTION_DDOT":0}]
